STARLINK-36623          
1 67644U 26020AD  26038.25003472 -.01770081  86153-3 -51506-2 0  9990
2 67644  42.9996 327.2594 0001704 267.1455 354.7318 15.92083376  2492
STARLINK-36619          
1 67645U 26020AE  26038.25003472 -.01772395  86220-3 -52027-2 0  9995
2 67645  42.9996 327.2665 0001614 261.5692 357.5275 15.91915738  2491
ALSAT-3B                
1 67646U 26021A   26038.50226738  .00009332  00000+0  39334-3 0  9993
2 67646  97.4722 112.9679 0011525 237.9308 122.0810 15.23489396  1121
CZ-2C R/B               
1 67647U 26021B   26038.50432620  .00018915  00000+0  57291-3 0  9992
2 67647  97.6561 113.3641 0154068 116.0535 245.6655 15.23248052  1107
STARLINK-36719          
1 67648U 26022A   26038.50001156 -.01473369  68660-3 -26214-2 0  9991
2 67648  97.2832  70.8053 0001089  84.1212 309.1962 16.01934334  2043
STARLINK-36342          
1 67649U 26022B   26038.50001156 -.01475729  68958-3 -26078-2 0  9992
2 67649  97.2831  70.8057 0001081  84.0274 310.4483 16.02051928  2049
STARLINK-36703          
1 67650U 26022C   26038.50001156 -.01471191  68686-3 -25769-2 0  9997
2 67650  97.2830  70.8063 0001096  77.8769 317.9735 16.02203954  2042
STARLINK-36696          
1 67651U 26022D   26038.50001156 -.01459586  67806-3 -25332-2 0  9991
2 67651  97.2829  70.8069 0001155  74.8476 322.4314 16.02359783  2041
STARLINK-36699          
1 67652U 26022E   26038.50001156 -.01451838  67243-3 -25003-2 0  9994
2 67652  97.2829  70.8074 0001008  88.1230 310.4238 16.02492556  2049
STARLINK-36694          
1 67653U 26022F   26038.50001156 -.01451029  67315-3 -24727-2 0  9999
2 67653  97.2828  70.8081 0001028  92.8297 307.2481 16.02672830  2043
STARLINK-36620          
1 67654U 26022G   26038.50001156 -.01452576  67569-3 -24533-2 0  9994
2 67654  97.2826  70.8084 0001113  83.8046 317.6534 16.02825511  2042
STARLINK-36720          
1 67655U 26022H   26038.50001156 -.01443208  66902-3 -24121-2 0  9990
2 67655  97.2828  70.8092 0000983  95.9340 307.0703 16.03003259  2048
