CCSDS_OMM_VERS = 2.0
CREATION_DATE  = 
ORIGINATOR     = 

OBJECT_NAME    = STARLINK-36623
OBJECT_ID      = 2026-020AD
CENTER_NAME    = EARTH
REF_FRAME      = TEME
TIME_SYSTEM    = UTC
MEAN_ELEMENT_THEORY = SGP/SGP4

EPOCH          = 2026-02-07T06:00:02.999808
MEAN_MOTION    = 15.92083376
ECCENTRICITY   = .0001704
INCLINATION    = 42.9996
RA_OF_ASC_NODE = 327.2594
ARG_OF_PERICENTER = 267.1455
MEAN_ANOMALY   = 354.7318

EPHEMERIS_TYPE = 0
CLASSIFICATION_TYPE = U
NORAD_CAT_ID   = 67644
ELEMENT_SET_NO = 999
REV_AT_EPOCH   = 249
BSTAR          = -.51506027E-2
MEAN_MOTION_DOT = -.1770081E-1
MEAN_MOTION_DDOT = .86152603E-3

CCSDS_OMM_VERS = 2.0
CREATION_DATE  = 
ORIGINATOR     = 

OBJECT_NAME    = STARLINK-36619
OBJECT_ID      = 2026-020AE
CENTER_NAME    = EARTH
REF_FRAME      = TEME
TIME_SYSTEM    = UTC
MEAN_ELEMENT_THEORY = SGP/SGP4

EPOCH          = 2026-02-07T06:00:02.999808
MEAN_MOTION    = 15.91915738
ECCENTRICITY   = .00016148
INCLINATION    = 42.9996
RA_OF_ASC_NODE = 327.2665
ARG_OF_PERICENTER = 261.5692
MEAN_ANOMALY   = 357.5275

EPHEMERIS_TYPE = 0
CLASSIFICATION_TYPE = U
NORAD_CAT_ID   = 67645
ELEMENT_SET_NO = 999
REV_AT_EPOCH   = 249
BSTAR          = -.52026752E-2
MEAN_MOTION_DOT = -.1772395E-1
MEAN_MOTION_DDOT = .86219579E-3

CCSDS_OMM_VERS = 2.0
CREATION_DATE  = 
ORIGINATOR     = 

OBJECT_NAME    = ALSAT-3B
OBJECT_ID      = 2026-021A
CENTER_NAME    = EARTH
REF_FRAME      = TEME
TIME_SYSTEM    = UTC
MEAN_ELEMENT_THEORY = SGP/SGP4

EPOCH          = 2026-02-07T12:03:15.901632
MEAN_MOTION    = 15.23489396
ECCENTRICITY   = .0011525
INCLINATION    = 97.4722
RA_OF_ASC_NODE = 112.9679
ARG_OF_PERICENTER = 237.9308
MEAN_ANOMALY   = 122.0810

EPHEMERIS_TYPE = 0
CLASSIFICATION_TYPE = U
NORAD_CAT_ID   = 67646
ELEMENT_SET_NO = 999
REV_AT_EPOCH   = 112
BSTAR          = .39334E-3
MEAN_MOTION_DOT = .9332E-4
MEAN_MOTION_DDOT = 0

CCSDS_OMM_VERS = 2.0
CREATION_DATE  = 
ORIGINATOR     = 

OBJECT_NAME    = CZ-2C R/B
OBJECT_ID      = 2026-021B
CENTER_NAME    = EARTH
REF_FRAME      = TEME
TIME_SYSTEM    = UTC
MEAN_ELEMENT_THEORY = SGP/SGP4

EPOCH          = 2026-02-07T12:06:13.783680
MEAN_MOTION    = 15.23248052
ECCENTRICITY   = .0154068
INCLINATION    = 97.6561
RA_OF_ASC_NODE = 113.3641
ARG_OF_PERICENTER = 116.0535
MEAN_ANOMALY   = 245.6655

EPHEMERIS_TYPE = 0
CLASSIFICATION_TYPE = U
NORAD_CAT_ID   = 67647
ELEMENT_SET_NO = 999
REV_AT_EPOCH   = 110
BSTAR          = .57291E-3
MEAN_MOTION_DOT = .18915E-3
MEAN_MOTION_DDOT = 0

CCSDS_OMM_VERS = 2.0
CREATION_DATE  = 
ORIGINATOR     = 

OBJECT_NAME    = STARLINK-36719
OBJECT_ID      = 2026-022A
CENTER_NAME    = EARTH
REF_FRAME      = TEME
TIME_SYSTEM    = UTC
MEAN_ELEMENT_THEORY = SGP/SGP4

EPOCH          = 2026-02-07T12:00:00.998784
MEAN_MOTION    = 16.01934334
ECCENTRICITY   = .0001089
INCLINATION    = 97.2832
RA_OF_ASC_NODE = 70.8053
ARG_OF_PERICENTER = 84.1212
MEAN_ANOMALY   = 309.1962

EPHEMERIS_TYPE = 0
CLASSIFICATION_TYPE = U
NORAD_CAT_ID   = 67648
ELEMENT_SET_NO = 999
REV_AT_EPOCH   = 204
BSTAR          = -.26214E-2
MEAN_MOTION_DOT = -.1473369E-1
MEAN_MOTION_DDOT = .6866E-3

CCSDS_OMM_VERS = 2.0
CREATION_DATE  = 
ORIGINATOR     = 

OBJECT_NAME    = STARLINK-36342
OBJECT_ID      = 2026-022B
CENTER_NAME    = EARTH
REF_FRAME      = TEME
TIME_SYSTEM    = UTC
MEAN_ELEMENT_THEORY = SGP/SGP4

EPOCH          = 2026-02-07T12:00:00.998784
MEAN_MOTION    = 16.02051928
ECCENTRICITY   = .0001081
INCLINATION    = 97.2831
RA_OF_ASC_NODE = 70.8057
ARG_OF_PERICENTER = 84.0274
MEAN_ANOMALY   = 310.4483

EPHEMERIS_TYPE = 0
CLASSIFICATION_TYPE = U
NORAD_CAT_ID   = 67649
ELEMENT_SET_NO = 999
REV_AT_EPOCH   = 204
BSTAR          = -.26078E-2
MEAN_MOTION_DOT = -.1475729E-1
MEAN_MOTION_DDOT = .68958E-3

CCSDS_OMM_VERS = 2.0
CREATION_DATE  = 
ORIGINATOR     = 

OBJECT_NAME    = STARLINK-36703
OBJECT_ID      = 2026-022C
CENTER_NAME    = EARTH
REF_FRAME      = TEME
TIME_SYSTEM    = UTC
MEAN_ELEMENT_THEORY = SGP/SGP4

EPOCH          = 2026-02-07T12:00:00.998784
MEAN_MOTION    = 16.02203954
ECCENTRICITY   = .0001096
INCLINATION    = 97.2830
RA_OF_ASC_NODE = 70.8063
ARG_OF_PERICENTER = 77.8769
MEAN_ANOMALY   = 317.9735

EPHEMERIS_TYPE = 0
CLASSIFICATION_TYPE = U
NORAD_CAT_ID   = 67650
ELEMENT_SET_NO = 999
REV_AT_EPOCH   = 204
BSTAR          = -.25769E-2
MEAN_MOTION_DOT = -.1471191E-1
MEAN_MOTION_DDOT = .68686E-3

CCSDS_OMM_VERS = 2.0
CREATION_DATE  = 
ORIGINATOR     = 

OBJECT_NAME    = STARLINK-36696
OBJECT_ID      = 2026-022D
CENTER_NAME    = EARTH
REF_FRAME      = TEME
TIME_SYSTEM    = UTC
MEAN_ELEMENT_THEORY = SGP/SGP4

EPOCH          = 2026-02-07T12:00:00.998784
MEAN_MOTION    = 16.02359783
ECCENTRICITY   = .0001155
INCLINATION    = 97.2829
RA_OF_ASC_NODE = 70.8069
ARG_OF_PERICENTER = 74.8476
MEAN_ANOMALY   = 322.4314

EPHEMERIS_TYPE = 0
CLASSIFICATION_TYPE = U
NORAD_CAT_ID   = 67651
ELEMENT_SET_NO = 999
REV_AT_EPOCH   = 204
BSTAR          = -.25332E-2
MEAN_MOTION_DOT = -.1459586E-1
MEAN_MOTION_DDOT = .67806E-3

CCSDS_OMM_VERS = 2.0
CREATION_DATE  = 
ORIGINATOR     = 

OBJECT_NAME    = STARLINK-36699
OBJECT_ID      = 2026-022E
CENTER_NAME    = EARTH
REF_FRAME      = TEME
TIME_SYSTEM    = UTC
MEAN_ELEMENT_THEORY = SGP/SGP4

EPOCH          = 2026-02-07T12:00:00.998784
MEAN_MOTION    = 16.02492556
ECCENTRICITY   = .0001008
INCLINATION    = 97.2829
RA_OF_ASC_NODE = 70.8074
ARG_OF_PERICENTER = 88.1230
MEAN_ANOMALY   = 310.4238

EPHEMERIS_TYPE = 0
CLASSIFICATION_TYPE = U
NORAD_CAT_ID   = 67652
ELEMENT_SET_NO = 999
REV_AT_EPOCH   = 204
BSTAR          = -.25003E-2
MEAN_MOTION_DOT = -.1451838E-1
MEAN_MOTION_DDOT = .67243E-3

CCSDS_OMM_VERS = 2.0
CREATION_DATE  = 
ORIGINATOR     = 

OBJECT_NAME    = STARLINK-36694
OBJECT_ID      = 2026-022F
CENTER_NAME    = EARTH
REF_FRAME      = TEME
TIME_SYSTEM    = UTC
MEAN_ELEMENT_THEORY = SGP/SGP4

EPOCH          = 2026-02-07T12:00:00.998784
MEAN_MOTION    = 16.02672830
ECCENTRICITY   = .0001028
INCLINATION    = 97.2828
RA_OF_ASC_NODE = 70.8081
ARG_OF_PERICENTER = 92.8297
MEAN_ANOMALY   = 307.2481

EPHEMERIS_TYPE = 0
CLASSIFICATION_TYPE = U
NORAD_CAT_ID   = 67653
ELEMENT_SET_NO = 999
REV_AT_EPOCH   = 204
BSTAR          = -.24727E-2
MEAN_MOTION_DOT = -.1451029E-1
MEAN_MOTION_DDOT = .67315E-3

CCSDS_OMM_VERS = 2.0
CREATION_DATE  = 
ORIGINATOR     = 

OBJECT_NAME    = STARLINK-36620
OBJECT_ID      = 2026-022G
CENTER_NAME    = EARTH
REF_FRAME      = TEME
TIME_SYSTEM    = UTC
MEAN_ELEMENT_THEORY = SGP/SGP4

EPOCH          = 2026-02-07T12:00:00.998784
MEAN_MOTION    = 16.02825511
ECCENTRICITY   = .0001113
INCLINATION    = 97.2826
RA_OF_ASC_NODE = 70.8084
ARG_OF_PERICENTER = 83.8046
MEAN_ANOMALY   = 317.6534

EPHEMERIS_TYPE = 0
CLASSIFICATION_TYPE = U
NORAD_CAT_ID   = 67654
ELEMENT_SET_NO = 999
REV_AT_EPOCH   = 204
BSTAR          = -.24533E-2
MEAN_MOTION_DOT = -.1452576E-1
MEAN_MOTION_DDOT = .67569E-3

CCSDS_OMM_VERS = 2.0
CREATION_DATE  = 
ORIGINATOR     = 

OBJECT_NAME    = STARLINK-36720
OBJECT_ID      = 2026-022H
CENTER_NAME    = EARTH
REF_FRAME      = TEME
TIME_SYSTEM    = UTC
MEAN_ELEMENT_THEORY = SGP/SGP4

EPOCH          = 2026-02-07T12:00:00.998784
MEAN_MOTION    = 16.03003259
ECCENTRICITY   = .0000983
INCLINATION    = 97.2828
RA_OF_ASC_NODE = 70.8092
ARG_OF_PERICENTER = 95.9340
MEAN_ANOMALY   = 307.0703

EPHEMERIS_TYPE = 0
CLASSIFICATION_TYPE = U
NORAD_CAT_ID   = 67655
ELEMENT_SET_NO = 999
REV_AT_EPOCH   = 204
BSTAR          = -.24121E-2
MEAN_MOTION_DOT = -.1443208E-1
MEAN_MOTION_DDOT = .66902E-3

